[{"OBJECT_NAME":"ONEWEB-0361","OBJECT_ID":"2021-090J","EPOCH":"2025-11-27T20:42:48.767616","MEAN_MOTION":13.20771234,"ECCENTRICITY":0.00017512,"INCLINATION":87.9184,"RA_OF_ASC_NODE":314.5897,"ARG_OF_PERICENTER":91.1572,"MEAN_ANOMALY":268.9762,"EPHEMERIS_TYPE":0,"CLASSIFICATION_TYPE":"U","NORAD_CAT_ID":49287,"ELEMENT_SET_NO":999,"REV_AT_EPOCH":20372,"BSTAR":-0.00023231228,"MEAN_MOTION_DOT":-8.1e-7,"MEAN_MOTION_DDOT":0},{"OBJECT_NAME":"ONEWEB-0362","OBJECT_ID":"2021-090K","EPOCH":"2025-11-27T17:34:04.744704","MEAN_MOTION":13.1972325,"ECCENTRICITY":0.00019175,"INCLINATION":87.9195,"RA_OF_ASC_NODE":345.073,"ARG_OF_PERICENTER":84.0969,"MEAN_ANOMALY":276.0382,"EPHEMERIS_TYPE":0,"CLASSIFICATION_TYPE":"U","NORAD_CAT_ID":49288,"ELEMENT_SET_NO":999,"REV_AT_EPOCH":20034,"BSTAR":-3.6068364e-5,"MEAN_MOTION_DOT":-1.0e-8,"MEAN_MOTION_DDOT":0},{"OBJECT_NAME":"ONEWEB-0363","OBJECT_ID":"2021-090L","EPOCH":"2025-11-27T21:05:31.603200","MEAN_MOTION":13.20769698,"ECCENTRICITY":0.00017133,"INCLINATION":87.919,"RA_OF_ASC_NODE":314.5838,"ARG_OF_PERICENTER":97.7224,"MEAN_ANOMALY":262.4103,"EPHEMERIS_TYPE":0,"CLASSIFICATION_TYPE":"U","NORAD_CAT_ID":49289,"ELEMENT_SET_NO":999,"REV_AT_EPOCH":20373,"BSTAR":-0.00011685125,"MEAN_MOTION_DOT":-3.5e-7,"MEAN_MOTION_DDOT":0},{"OBJECT_NAME":"ONEWEB-0364","OBJECT_ID":"2021-090M","EPOCH":"2025-11-27T22:00:03.600576","MEAN_MOTION":13.20769207,"ECCENTRICITY":0.00018044,"INCLINATION":87.9185,"RA_OF_ASC_NODE":314.6008,"ARG_OF_PERICENTER":90.0855,"MEAN_ANOMALY":270.0485,"EPHEMERIS_TYPE":0,"CLASSIFICATION_TYPE":"U","NORAD_CAT_ID":49290,"ELEMENT_SET_NO":999,"REV_AT_EPOCH":20487,"BSTAR":0.00023038826,"MEAN_MOTION_DOT":1.07e-6,"MEAN_MOTION_DDOT":0},{"OBJECT_NAME":"ONEWEB-0365","OBJECT_ID":"2021-090N","EPOCH":"2025-11-27T17:47:43.608480","MEAN_MOTION":13.19723015,"ECCENTRICITY":0.00019414,"INCLINATION":87.921,"RA_OF_ASC_NODE":345.0339,"ARG_OF_PERICENTER":90.3762,"MEAN_ANOMALY":269.7594,"EPHEMERIS_TYPE":0,"CLASSIFICATION_TYPE":"U","NORAD_CAT_ID":49291,"ELEMENT_SET_NO":999,"REV_AT_EPOCH":19985,"BSTAR":3.3364737e-5,"MEAN_MOTION_DOT":2.6e-7,"MEAN_MOTION_DDOT":0},{"OBJECT_NAME":"ONEWEB-0366","OBJECT_ID":"2021-090P","EPOCH":"2025-11-27T17:22:12.934848","MEAN_MOTION":13.14502107,"ECCENTRICITY":0.00017424,"INCLINATION":87.898,"RA_OF_ASC_NODE":329.8577,"ARG_OF_PERICENTER":90.3863,"MEAN_ANOMALY":269.7466,"EPHEMERIS_TYPE":0,"CLASSIFICATION_TYPE":"U","NORAD_CAT_ID":49292,"ELEMENT_SET_NO":999,"REV_AT_EPOCH":20109,"BSTAR":-0.00049482238,"MEAN_MOTION_DOT":-1.71e-6,"MEAN_MOTION_DDOT":0},{"OBJECT_NAME":"ONEWEB-0367","OBJECT_ID":"2021-090Q","EPOCH":"2025-11-27T21:03:14.584032","MEAN_MOTION":13.20769458,"ECCENTRICITY":0.00019789,"INCLINATION":87.9193,"RA_OF_ASC_NODE":314.5832,"ARG_OF_PERICENTER":82.0883,"MEAN_ANOMALY":278.0475,"EPHEMERIS_TYPE":0,"CLASSIFICATION_TYPE":"U","NORAD_CAT_ID":49293,"ELEMENT_SET_NO":999,"REV_AT_EPOCH":20325,"BSTAR":4.1965189e-5,"MEAN_MOTION_DOT":3.0e-7,"MEAN_MOTION_DDOT":0},{"OBJECT_NAME":"ONEWEB-0368","OBJECT_ID":"2021-090R","EPOCH":"2025-11-27T20:24:37.105344","MEAN_MOTION":13.207687,"ECCENTRICITY":0.00023977,"INCLINATION":87.9189,"RA_OF_ASC_NODE":314.6194,"ARG_OF_PERICENTER":103.182,"MEAN_ANOMALY":256.9581,"EPHEMERIS_TYPE":0,"CLASSIFICATION_TYPE":"U","NORAD_CAT_ID":49294,"ELEMENT_SET_NO":999,"REV_AT_EPOCH":20440,"BSTAR":2.2950097e-5,"MEAN_MOTION_DOT":2.2e-7,"MEAN_MOTION_DDOT":0},{"OBJECT_NAME":"ONEWEB-0369","OBJECT_ID":"2021-090S","EPOCH":"2025-11-27T17:40:53.688000","MEAN_MOTION":13.19727841,"ECCENTRICITY":0.00018966,"INCLINATION":87.9201,"RA_OF_ASC_NODE":345.0634,"ARG_OF_PERICENTER":92.1004,"MEAN_ANOMALY":268.0346,"EPHEMERIS_TYPE":0,"CLASSIFICATION_TYPE":"U","NORAD_CAT_ID":49295,"ELEMENT_SET_NO":999,"REV_AT_EPOCH":19984,"BSTAR":-7.8616116e-5,"MEAN_MOTION_DOT":-1.9e-7,"MEAN_MOTION_DDOT":0},{"OBJECT_NAME":"ONEWEB-0370","OBJECT_ID":"2021-090T","EPOCH":"2025-11-27T21:16:52.447296","MEAN_MOTION":13.20770866,"ECCENTRICITY":0.00017575,"INCLINATION":87.9184,"RA_OF_ASC_NODE":314.5873,"ARG_OF_PERICENTER":76.9409,"MEAN_ANOMALY":283.192,"EPHEMERIS_TYPE":0,"CLASSIFICATION_TYPE":"U","NORAD_CAT_ID":49296,"ELEMENT_SET_NO":999,"REV_AT_EPOCH":20329,"BSTAR":-0.0006886089,"MEAN_MOTION_DOT":-2.67e-6,"MEAN_MOTION_DDOT":0},{"OBJECT_NAME":"ONEWEB-0371","OBJECT_ID":"2021-090U","EPOCH":"2025-11-27T17:52:16.314528","MEAN_MOTION":13.19725125,"ECCENTRICITY":0.00018563,"INCLINATION":87.9202,"RA_OF_ASC_NODE":345.0491,"ARG_OF_PERICENTER":88.9708,"MEAN_ANOMALY":271.1638,"EPHEMERIS_TYPE":0,"CLASSIFICATION_TYPE":"U","NORAD_CAT_ID":49297,"ELEMENT_SET_NO":999,"REV_AT_EPOCH":19988,"BSTAR":-0.00083178855,"MEAN_MOTION_DOT":-3.2e-6,"MEAN_MOTION_DDOT":0},{"OBJECT_NAME":"ONEWEB-0372","OBJECT_ID":"2021-090V","EPOCH":"2025-11-27T17:22:35.912064","MEAN_MOTION":13.20774038,"ECCENTRICITY":0.00019333,"INCLINATION":87.9179,"RA_OF_ASC_NODE":314.6199,"ARG_OF_PERICENTER":86.5116,"MEAN_ANOMALY":273.6239,"EPHEMERIS_TYPE":0,"CLASSIFICATION_TYPE":"U","NORAD_CAT_ID":49298,"ELEMENT_SET_NO":999,"REV_AT_EPOCH":20324,"BSTAR":8.1416383e-5,"MEAN_MOTION_DOT":4.6e-7,"MEAN_MOTION_DDOT":0},{"OBJECT_NAME":"ONEWEB-0373","OBJECT_ID":"2021-090W","EPOCH":"2025-11-27T21:39:37.346112","MEAN_MOTION":13.20773093,"ECCENTRICITY":0.0001769,"INCLINATION":87.9183,"RA_OF_ASC_NODE":314.5971,"ARG_OF_PERICENTER":87.3557,"MEAN_ANOMALY":272.7779,"EPHEMERIS_TYPE":0,"CLASSIFICATION_TYPE":"U","NORAD_CAT_ID":49299,"ELEMENT_SET_NO":999,"REV_AT_EPOCH":20445,"BSTAR":0.00027235816,"MEAN_MOTION_DOT":1.24e-6,"MEAN_MOTION_DDOT":0},{"OBJECT_NAME":"ONEWEB-0374","OBJECT_ID":"2021-090X","EPOCH":"2025-11-27T17:03:56.588832","MEAN_MOTION":13.14503888,"ECCENTRICITY":0.00018055,"INCLINATION":87.8984,"RA_OF_ASC_NODE":329.838,"ARG_OF_PERICENTER":107.7754,"MEAN_ANOMALY":252.3573,"EPHEMERIS_TYPE":0,"CLASSIFICATION_TYPE":"U","NORAD_CAT_ID":49300,"ELEMENT_SET_NO":999,"REV_AT_EPOCH":20109,"BSTAR":-0.00024856735,"MEAN_MOTION_DOT":-7.9e-7,"MEAN_MOTION_DDOT":0},{"OBJECT_NAME":"ONEWEB-0375","OBJECT_ID":"2021-090Y","EPOCH":"2025-11-27T21:21:26.054496","MEAN_MOTION":13.20773131,"ECCENTRICITY":0.00014394,"INCLINATION":87.9181,"RA_OF_ASC_NODE":314.5804,"ARG_OF_PERICENTER":101.1498,"MEAN_ANOMALY":258.9798,"EPHEMERIS_TYPE":0,"CLASSIFICATION_TYPE":"U","NORAD_CAT_ID":49301,"ELEMENT_SET_NO":999,"REV_AT_EPOCH":20395,"BSTAR":7.7362319e-5,"MEAN_MOTION_DOT":4.4e-7,"MEAN_MOTION_DDOT":0},{"OBJECT_NAME":"ONEWEB-0376","OBJECT_ID":"2021-090Z","EPOCH":"2025-11-27T14:11:39.901056","MEAN_MOTION":13.19726141,"ECCENTRICITY":0.000206,"INCLINATION":87.9209,"RA_OF_ASC_NODE":345.0663,"ARG_OF_PERICENTER":90.0019,"MEAN_ANOMALY":270.1349,"EPHEMERIS_TYPE":0,"CLASSIFICATION_TYPE":"U","NORAD_CAT_ID":49302,"ELEMENT_SET_NO":999,"REV_AT_EPOCH":19986,"BSTAR":0.00013858617,"MEAN_MOTION_DOT":6.8e-7,"MEAN_MOTION_DDOT":0}]
