ONEWEB-0361             
1 49287U 21090J   25331.86306444 -.00000081  00000+0 -23231-3 0  9995
2 49287  87.9184 314.5897 0001751  91.1572 268.9762 13.20771234203729
ONEWEB-0362             
1 49288U 21090K   25331.73199936 -.00000001  00000+0 -36068-4 0  9993
2 49288  87.9195 345.0730 0001917  84.0969 276.0382 13.19723250200348
ONEWEB-0363             
1 49289U 21090L   25331.87883800 -.00000035  00000+0 -11685-3 0  9993
2 49289  87.9190 314.5838 0001713  97.7224 262.4103 13.20769698203737
ONEWEB-0364             
1 49290U 21090M   25331.91670834  .00000107  00000+0  23039-3 0  9995
2 49290  87.9185 314.6008 0001804  90.0855 270.0485 13.20769207204870
ONEWEB-0365             
1 49291U 21090N   25331.74147695  .00000026  00000+0  33365-4 0  9995
2 49291  87.9210 345.0339 0001941  90.3762 269.7594 13.19723015199859
ONEWEB-0366             
1 49292U 21090P   25331.72376082 -.00000171  00000+0 -49482-3 0  9997
2 49292  87.8980 329.8577 0001742  90.3863 269.7466 13.14502107201098
ONEWEB-0367             
1 49293U 21090Q   25331.87725213  .00000030  00000+0  41965-4 0  9999
2 49293  87.9193 314.5832 0001978  82.0883 278.0475 13.20769458203256
ONEWEB-0368             
1 49294U 21090R   25331.85042946  .00000022  00000+0  22950-4 0  9997
2 49294  87.9189 314.6194 0002397 103.1820 256.9581 13.20768700204406
ONEWEB-0369             
1 49295U 21090S   25331.73673250 -.00000019  00000+0 -78616-4 0  9991
2 49295  87.9201 345.0634 0001896  92.1004 268.0346 13.19727841199846
ONEWEB-0370             
1 49296U 21090T   25331.88671814 -.00000267  00000+0 -68861-3 0  9997
2 49296  87.9184 314.5873 0001757  76.9409 283.1920 13.20770866203296
ONEWEB-0371             
1 49297U 21090U   25331.74463327 -.00000320  00000+0 -83179-3 0  9990
2 49297  87.9202 345.0491 0001856  88.9708 271.1638 13.19725125199886
ONEWEB-0372             
1 49298U 21090V   25331.72402676  .00000046  00000+0  81416-4 0  9995
2 49298  87.9179 314.6199 0001933  86.5116 273.6239 13.20774038203249
ONEWEB-0373             
1 49299U 21090W   25331.90251558  .00000124  00000+0  27236-3 0  9993
2 49299  87.9183 314.5971 0001769  87.3557 272.7779 13.20773093204450
ONEWEB-0374             
1 49300U 21090X   25331.71107163 -.00000079  00000+0 -24857-3 0  9994
2 49300  87.8984 329.8380 0001805 107.7754 252.3573 13.14503888201090
ONEWEB-0375             
1 49301U 21090Y   25331.88988489  .00000044  00000+0  77362-4 0  9991
2 49301  87.9181 314.5804 0001439 101.1498 258.9798 13.20773131203954
ONEWEB-0376             
1 49302U 21090Z   25331.59143404  .00000068  00000+0  13859-3 0  9996
2 49302  87.9209 345.0663 0002060  90.0019 270.1349 13.19726141199863
